[{"OBJECT_NAME":"PAUSAT-1","OBJECT_ID":"2025-009AW","EPOCH":"2026-03-09T21:56:28.544064","MEAN_MOTION":15.22739434,"ECCENTRICITY":9.75e-5,"INCLINATION":97.3999,"RA_OF_ASC_NODE":150.0167,"ARG_OF_PERICENTER":25.9866,"MEAN_ANOMALY":334.142,"EPHEMERIS_TYPE":0,"CLASSIFICATION_TYPE":"U","NORAD_CAT_ID":62653,"ELEMENT_SET_NO":999,"REV_AT_EPOCH":6367,"BSTAR":0.00025386454,"MEAN_MOTION_DOT":5.854e-5,"MEAN_MOTION_DDOT":0},{"OBJECT_NAME":"CZ-4 DEB","OBJECT_ID":"2006-046J","EPOCH":"2026-03-09T18:53:15.937728","MEAN_MOTION":15.02015872,"ECCENTRICITY":0.00905092,"INCLINATION":97.813,"RA_OF_ASC_NODE":3.4349,"ARG_OF_PERICENTER":91.2796,"MEAN_ANOMALY":323.9331,"EPHEMERIS_TYPE":0,"CLASSIFICATION_TYPE":"U","NORAD_CAT_ID":35376,"ELEMENT_SET_NO":999,"REV_AT_EPOCH":2538,"BSTAR":0.001704414,"MEAN_MOTION_DOT":0.00024412,"MEAN_MOTION_DDOT":0}]
